SL-3 R/B                
1 13403U 82079B   25346.28686577  .00009724  00000+0  40123-3 0  9990
2 13403  81.1467 296.1947 0027131 100.5047 259.9244 15.23578912364381
SL-14 R/B               
1 13553U 82092B   25346.15209330  .00000744  00000+0  81043-4 0  9995
2 13553  82.5685 223.2615 0019112 229.0941 245.7684 14.86554793315923
SL-3 R/B                
1 13819U 83010B   25346.31822704  .00020062  00000+0  44506-3 0  9992
2 13819  81.1035 109.1330 0017225 352.6193   7.4793 15.43438750344455
SL-3 R/B                
1 14208U 83075B   25346.20102104  .00015764  00000+0  44630-3 0  9990
2 14208  97.6109 342.6662 0022695 177.2678 182.8693 15.36117946316718
COSMOS 1536             
1 14699U 84013A   25346.08338608  .00008704  00000+0  37337-3 0  9995
2 14699  82.5453 194.8151 0013428 228.1021 131.9071 15.22506511259287
SL-14 R/B               
1 14820U 84027B   25346.01678522  .00000852  00000+0  94844-4 0  9994
2 14820  82.5412 327.2341 0016373 263.4518  96.4835 14.85873249234612
SL-8 R/B                
1 15483U 85006B   25346.26313666  .00000405  00000+0  14327-3 0  9991
2 15483  74.0467  62.0119 0018682 354.2761  60.9597 14.37720915141464
SL-12 R/B(2)            
1 15772U 85042D   25346.27333588  .00000153  00000+0  90239-4 0  9995
2 15772  71.1085 272.4051 0037617 262.1813 260.4871 14.21951877101964
SL-14 R/B               
1 15945U 85069B   25346.29754799  .00000950  00000+0  10470-3 0  9992
2 15945  82.5267 107.1186 0020131 119.8445 240.4776 14.86323891159852
SL-16 R/B               
1 16182U 85097B   25346.29228927  .00000315  00000+0  18164-3 0  9999
2 16182  71.0033 324.5450 0006630  11.7289  85.4578 14.16583756 74857
SL-14 R/B               
1 16496U 86006B   25346.09417558  .00001004  00000+0  10442-3 0  9993
2 16496  82.5264 342.1586 0076111 201.9728 157.8221 14.86670654136192
COSMOS 1743             
1 16719U 86034A   25345.94525208  .00036916  00000+0  60947-3 0  9992
2 16719  82.5347 165.4171 0004681 257.1039 102.9690 15.52079978166616
