CCSDS_OMM_VERS = 2.0
CREATION_DATE  = 
ORIGINATOR     = 

OBJECT_NAME    = SL-3 R/B
OBJECT_ID      = 1982-079B
CENTER_NAME    = EARTH
REF_FRAME      = TEME
TIME_SYSTEM    = UTC
MEAN_ELEMENT_THEORY = SGP/SGP4

EPOCH          = 2025-12-12T06:53:05.202528
MEAN_MOTION    = 15.23578912
ECCENTRICITY   = .0027131
INCLINATION    = 81.1467
RA_OF_ASC_NODE = 296.1947
ARG_OF_PERICENTER = 100.5047
MEAN_ANOMALY   = 259.9244

EPHEMERIS_TYPE = 0
CLASSIFICATION_TYPE = U
NORAD_CAT_ID   = 13403
ELEMENT_SET_NO = 999
REV_AT_EPOCH   = 36438
BSTAR          = .40122914E-3
MEAN_MOTION_DOT = .9724E-4
MEAN_MOTION_DDOT = 0

CCSDS_OMM_VERS = 2.0
CREATION_DATE  = 
ORIGINATOR     = 

OBJECT_NAME    = SL-14 R/B
OBJECT_ID      = 1982-092B
CENTER_NAME    = EARTH
REF_FRAME      = TEME
TIME_SYSTEM    = UTC
MEAN_ELEMENT_THEORY = SGP/SGP4

EPOCH          = 2025-12-12T03:39:00.861120
MEAN_MOTION    = 14.86554793
ECCENTRICITY   = .00191126
INCLINATION    = 82.5685
RA_OF_ASC_NODE = 223.2615
ARG_OF_PERICENTER = 229.0941
MEAN_ANOMALY   = 245.7684

EPHEMERIS_TYPE = 0
CLASSIFICATION_TYPE = U
NORAD_CAT_ID   = 13553
ELEMENT_SET_NO = 999
REV_AT_EPOCH   = 31592
BSTAR          = .81043005E-4
MEAN_MOTION_DOT = .744E-5
MEAN_MOTION_DDOT = 0

CCSDS_OMM_VERS = 2.0
CREATION_DATE  = 
ORIGINATOR     = 

OBJECT_NAME    = SL-3 R/B
OBJECT_ID      = 1983-010B
CENTER_NAME    = EARTH
REF_FRAME      = TEME
TIME_SYSTEM    = UTC
MEAN_ELEMENT_THEORY = SGP/SGP4

EPOCH          = 2025-12-12T07:38:14.816256
MEAN_MOTION    = 15.43438750
ECCENTRICITY   = .00172253
INCLINATION    = 81.1035
RA_OF_ASC_NODE = 109.1330
ARG_OF_PERICENTER = 352.6193
MEAN_ANOMALY   = 7.4793

EPHEMERIS_TYPE = 0
CLASSIFICATION_TYPE = U
NORAD_CAT_ID   = 13819
ELEMENT_SET_NO = 999
REV_AT_EPOCH   = 34445
BSTAR          = .44505622E-3
MEAN_MOTION_DOT = .20062E-3
MEAN_MOTION_DDOT = 0

CCSDS_OMM_VERS = 2.0
CREATION_DATE  = 
ORIGINATOR     = 

OBJECT_NAME    = SL-3 R/B
OBJECT_ID      = 1983-075B
CENTER_NAME    = EARTH
REF_FRAME      = TEME
TIME_SYSTEM    = UTC
MEAN_ELEMENT_THEORY = SGP/SGP4

EPOCH          = 2025-12-12T04:49:28.217856
MEAN_MOTION    = 15.36117946
ECCENTRICITY   = .00226958
INCLINATION    = 97.6109
RA_OF_ASC_NODE = 342.6662
ARG_OF_PERICENTER = 177.2678
MEAN_ANOMALY   = 182.8693

EPHEMERIS_TYPE = 0
CLASSIFICATION_TYPE = U
NORAD_CAT_ID   = 14208
ELEMENT_SET_NO = 999
REV_AT_EPOCH   = 31671
BSTAR          = .44629886E-3
MEAN_MOTION_DOT = .15764E-3
MEAN_MOTION_DDOT = 0

CCSDS_OMM_VERS = 2.0
CREATION_DATE  = 
ORIGINATOR     = 

OBJECT_NAME    = COSMOS 1536
OBJECT_ID      = 1984-013A
CENTER_NAME    = EARTH
REF_FRAME      = TEME
TIME_SYSTEM    = UTC
MEAN_ELEMENT_THEORY = SGP/SGP4

EPOCH          = 2025-12-12T02:00:04.557312
MEAN_MOTION    = 15.22506511
ECCENTRICITY   = .00134288
INCLINATION    = 82.5453
RA_OF_ASC_NODE = 194.8151
ARG_OF_PERICENTER = 228.1021
MEAN_ANOMALY   = 131.9071

EPHEMERIS_TYPE = 0
CLASSIFICATION_TYPE = U
NORAD_CAT_ID   = 14699
ELEMENT_SET_NO = 999
REV_AT_EPOCH   = 25928
BSTAR          = .37336517E-3
MEAN_MOTION_DOT = .8704E-4
MEAN_MOTION_DDOT = 0

CCSDS_OMM_VERS = 2.0
CREATION_DATE  = 
ORIGINATOR     = 

OBJECT_NAME    = SL-14 R/B
OBJECT_ID      = 1984-027B
CENTER_NAME    = EARTH
REF_FRAME      = TEME
TIME_SYSTEM    = UTC
MEAN_ELEMENT_THEORY = SGP/SGP4

EPOCH          = 2025-12-12T00:24:10.243008
MEAN_MOTION    = 14.85873249
ECCENTRICITY   = .0016373
INCLINATION    = 82.5412
RA_OF_ASC_NODE = 327.2341
ARG_OF_PERICENTER = 263.4518
MEAN_ANOMALY   = 96.4835

EPHEMERIS_TYPE = 0
CLASSIFICATION_TYPE = U
NORAD_CAT_ID   = 14820
ELEMENT_SET_NO = 999
REV_AT_EPOCH   = 23461
BSTAR          = .94844E-4
MEAN_MOTION_DOT = .852E-5
MEAN_MOTION_DDOT = 0

CCSDS_OMM_VERS = 2.0
CREATION_DATE  = 
ORIGINATOR     = 

OBJECT_NAME    = SL-8 R/B
OBJECT_ID      = 1985-006B
CENTER_NAME    = EARTH
REF_FRAME      = TEME
TIME_SYSTEM    = UTC
MEAN_ELEMENT_THEORY = SGP/SGP4

EPOCH          = 2025-12-12T06:18:55.007424
MEAN_MOTION    = 14.37720915
ECCENTRICITY   = .00186827
INCLINATION    = 74.0467
RA_OF_ASC_NODE = 62.0119
ARG_OF_PERICENTER = 354.2761
MEAN_ANOMALY   = 60.9597

EPHEMERIS_TYPE = 0
CLASSIFICATION_TYPE = U
NORAD_CAT_ID   = 15483
ELEMENT_SET_NO = 999
REV_AT_EPOCH   = 14146
BSTAR          = .14326534E-3
MEAN_MOTION_DOT = .405E-5
MEAN_MOTION_DDOT = 0

CCSDS_OMM_VERS = 2.0
CREATION_DATE  = 
ORIGINATOR     = 

OBJECT_NAME    = SL-12 R/B(2)
OBJECT_ID      = 1985-042D
CENTER_NAME    = EARTH
REF_FRAME      = TEME
TIME_SYSTEM    = UTC
MEAN_ELEMENT_THEORY = SGP/SGP4

EPOCH          = 2025-12-12T06:33:36.220032
MEAN_MOTION    = 14.21951877
ECCENTRICITY   = .00376175
INCLINATION    = 71.1085
RA_OF_ASC_NODE = 272.4051
ARG_OF_PERICENTER = 262.1813
MEAN_ANOMALY   = 260.4871

EPHEMERIS_TYPE = 0
CLASSIFICATION_TYPE = U
NORAD_CAT_ID   = 15772
ELEMENT_SET_NO = 999
REV_AT_EPOCH   = 10196
BSTAR          = .90238587E-4
MEAN_MOTION_DOT = .153E-5
MEAN_MOTION_DDOT = 0

CCSDS_OMM_VERS = 2.0
CREATION_DATE  = 
ORIGINATOR     = 

OBJECT_NAME    = SL-14 R/B
OBJECT_ID      = 1985-069B
CENTER_NAME    = EARTH
REF_FRAME      = TEME
TIME_SYSTEM    = UTC
MEAN_ELEMENT_THEORY = SGP/SGP4

EPOCH          = 2025-12-12T07:08:28.146336
MEAN_MOTION    = 14.86323891
ECCENTRICITY   = .00201315
INCLINATION    = 82.5267
RA_OF_ASC_NODE = 107.1186
ARG_OF_PERICENTER = 119.8445
MEAN_ANOMALY   = 240.4776

EPHEMERIS_TYPE = 0
CLASSIFICATION_TYPE = U
NORAD_CAT_ID   = 15945
ELEMENT_SET_NO = 999
REV_AT_EPOCH   = 15985
BSTAR          = .10470344E-3
MEAN_MOTION_DOT = .95E-5
MEAN_MOTION_DDOT = 0

CCSDS_OMM_VERS = 2.0
CREATION_DATE  = 
ORIGINATOR     = 

OBJECT_NAME    = SL-16 R/B
OBJECT_ID      = 1985-097B
CENTER_NAME    = EARTH
REF_FRAME      = TEME
TIME_SYSTEM    = UTC
MEAN_ELEMENT_THEORY = SGP/SGP4

EPOCH          = 2025-12-12T07:00:53.792928
MEAN_MOTION    = 14.16583756
ECCENTRICITY   = .000663
INCLINATION    = 71.0033
RA_OF_ASC_NODE = 324.5450
ARG_OF_PERICENTER = 11.7289
MEAN_ANOMALY   = 85.4578

EPHEMERIS_TYPE = 0
CLASSIFICATION_TYPE = U
NORAD_CAT_ID   = 16182
ELEMENT_SET_NO = 999
REV_AT_EPOCH   = 7485
BSTAR          = .1816376E-3
MEAN_MOTION_DOT = .315E-5
MEAN_MOTION_DDOT = 0

CCSDS_OMM_VERS = 2.0
CREATION_DATE  = 
ORIGINATOR     = 

OBJECT_NAME    = SL-14 R/B
OBJECT_ID      = 1986-006B
CENTER_NAME    = EARTH
REF_FRAME      = TEME
TIME_SYSTEM    = UTC
MEAN_ELEMENT_THEORY = SGP/SGP4

EPOCH          = 2025-12-12T02:15:36.770112
MEAN_MOTION    = 14.86670654
ECCENTRICITY   = .00761117
INCLINATION    = 82.5264
RA_OF_ASC_NODE = 342.1586
ARG_OF_PERICENTER = 201.9728
MEAN_ANOMALY   = 157.8221

EPHEMERIS_TYPE = 0
CLASSIFICATION_TYPE = U
NORAD_CAT_ID   = 16496
ELEMENT_SET_NO = 999
REV_AT_EPOCH   = 13619
BSTAR          = .1044243E-3
MEAN_MOTION_DOT = .1004E-4
MEAN_MOTION_DDOT = 0

CCSDS_OMM_VERS = 2.0
CREATION_DATE  = 
ORIGINATOR     = 

OBJECT_NAME    = COSMOS 1743
OBJECT_ID      = 1986-034A
CENTER_NAME    = EARTH
REF_FRAME      = TEME
TIME_SYSTEM    = UTC
MEAN_ELEMENT_THEORY = SGP/SGP4

EPOCH          = 2025-12-11T22:41:09.779712
MEAN_MOTION    = 15.52079978
ECCENTRICITY   = .0004681
INCLINATION    = 82.5347
RA_OF_ASC_NODE = 165.4171
ARG_OF_PERICENTER = 257.1039
MEAN_ANOMALY   = 102.9690

EPHEMERIS_TYPE = 0
CLASSIFICATION_TYPE = U
NORAD_CAT_ID   = 16719
ELEMENT_SET_NO = 999
REV_AT_EPOCH   = 16661
BSTAR          = .60947E-3
MEAN_MOTION_DOT = .36916E-3
MEAN_MOTION_DDOT = 0

